Satellite: Pratham
Catalog number: 41783
Epoch time: 17348.189528
Element set: 999
Inclination: 98.145100 deg
RA of node: 47.481400 deg
Eccentricity: 0.003268
Arg of perigee: 317.903500 deg
Mean anomaly: 41.965700 deg
Mean motion: 14.628868 rev/day
Decay rate: 5.400000e-07 rev/day^2
Epoch rev: 6491

Satellite: AlSat 1N
Catalog number: 41789
Epoch time: 17348.848675
Element set: 999
Inclination: 98.145300 deg
RA of node: 48.986300 deg
Eccentricity: 0.002738
Arg of perigee: 309.520200 deg
Mean anomaly: 50.356400 deg
Mean motion: 14.641098 rev/day
Decay rate: 6.800000e-07 rev/day^2
Epoch rev: 6504

Satellite: ScatSat
Catalog number: 41790
Epoch time: 17348.693443
Element set: 999
Inclination: 98.287500 deg
RA of node: 34.564700 deg
Eccentricity: 0.001724
Arg of perigee: 299.660000 deg
Mean anomaly: 60.287700 deg
Mean motion: 14.508531 rev/day
Decay rate: 2.300000e-07 rev/day^2
Epoch rev: 6443

Satellite: TY-1
Catalog number: 41844
Epoch time: 17348.775219
Element set: 999
Inclination: 97.406000 deg
RA of node: 353.275700 deg
Eccentricity: 0.001522
Arg of perigee: 331.152900 deg
Mean anomaly: 114.839800 deg
Mean motion: 15.226966 rev/day
Decay rate: 1.452000e-05 rev/day^2
Epoch rev: 6081

Satellite: CAS-2T
Catalog number: 41845
Epoch time: 17348.845704
Element set: 999
Inclination: 98.768100 deg
RA of node: 8.713700 deg
Eccentricity: 0.036762
Arg of perigee: 71.970400 deg
Mean anomaly: 292.116000 deg
Mean motion: 14.378388 rev/day
Decay rate: 9.100000e-07 rev/day^2
Epoch rev: 5745

Satellite: Pegasus-1
Catalog number: 41846
Epoch time: 17348.568167
Element set: 999
Inclination: 98.770700 deg
RA of node: 8.088600 deg
Eccentricity: 0.036969
Arg of perigee: 74.765100 deg
Mean anomaly: 289.409000 deg
Mean motion: 14.372120 rev/day
Decay rate: 3.630000e-06 rev/day^2
Epoch rev: 573

Satellite: STARS-C
Catalog number: 41895
Epoch time: 17348.558461
Element set: 999
Inclination: 51.632500 deg
RA of node: 194.618200 deg
Eccentricity: 0.000467
Arg of perigee: 211.861400 deg
Mean anomaly: 148.210600 deg
Mean motion: 15.810975 rev/day
Decay rate: 6.504800e-04 rev/day^2
Epoch rev: 563

Satellite: TO-89
Catalog number: 41932
Epoch time: 17348.456594
Element set: 999
Inclination: 51.637600 deg
RA of node: 205.337000 deg
Eccentricity: 0.000488
Arg of perigee: 202.521000 deg
Mean anomaly: 157.557200 deg
Mean motion: 15.666505 rev/day
Decay rate: 2.020400e-04 rev/day^2
Epoch rev: 517

Satellite: AOBA-V3LOX3
Catalog number: 41935
Epoch time: 17348.047659
Element set: 999
Inclination: 51.636900 deg
RA of node: 206.340000 deg
Eccentricity: 0.000438
Arg of perigee: 199.653500 deg
Mean anomaly: 160.429300 deg
Mean motion: 15.679425 rev/day
Decay rate: 2.351700e-04 rev/day^2
Epoch rev: 5177

Satellite: OSNSAT
Catalog number: 41939
Epoch time: 17348.819905
Element set: 999
Inclination: 51.629000 deg
RA of node: 186.518100 deg
Eccentricity: 0.000718
Arg of perigee: 220.633400 deg
Mean anomaly: 139.413800 deg
Mean motion: 15.931139 rev/day
Decay rate: 1.772090e-03 rev/day^2
Epoch rev: 5135

Satellite: EO-88
Catalog number: 42017
Epoch time: 17348.546048
Element set: 999
Inclination: 97.474400 deg
RA of node: 49.518600 deg
Eccentricity: 0.000528
Arg of perigee: 319.471800 deg
Mean anomaly: 40.612600 deg
Mean motion: 15.238340 rev/day
Decay rate: 1.736000e-05 rev/day^2
Epoch rev: 459

Satellite: HAVELSAT
Catalog number: 42700
Epoch time: 17348.866767
Element set: 999
Inclination: 51.637400 deg
RA of node: 211.053800 deg
Eccentricity: 0.000387
Arg of perigee: 262.326600 deg
Mean anomaly: 97.728900 deg
Mean motion: 15.628336 rev/day
Decay rate: 1.518600e-04 rev/day^2
Epoch rev: 3312

Satellite: SOMP2
Catalog number: 42701
Epoch time: 17348.839151
Element set: 999
Inclination: 51.637100 deg
RA of node: 211.620300 deg
Eccentricity: 0.000386
Arg of perigee: 262.136800 deg
Mean anomaly: 97.918800 deg
Mean motion: 15.623321 rev/day
Decay rate: 1.469400e-04 rev/day^2
Epoch rev: 3310

Satellite: Columbia
Catalog number: 42702
Epoch time: 17348.766432
Element set: 999
Inclination: 51.632400 deg
RA of node: 205.077800 deg
Eccentricity: 0.000515
Arg of perigee: 215.437800 deg
Mean anomaly: 144.628000 deg
Mean motion: 15.758946 rev/day
Decay rate: 6.290600e-04 rev/day^2
Epoch rev: 3311

Satellite: PHOENIX
Catalog number: 42706
Epoch time: 17348.825575
Element set: 999
Inclination: 51.637100 deg
RA of node: 211.531900 deg
Eccentricity: 0.000165
Arg of perigee: 174.614200 deg
Mean anomaly: 185.487000 deg
Mean motion: 15.623319 rev/day
Decay rate: 1.279100e-04 rev/day^2
Epoch rev: 3302

Satellite: X-CubeSat
Catalog number: 42707
Epoch time: 17348.812309
Element set: 999
Inclination: 51.635400 deg
RA of node: 211.427100 deg
Eccentricity: 0.000186
Arg of perigee: 176.835900 deg
Mean anomaly: 183.264800 deg
Mean motion: 15.628408 rev/day
Decay rate: 1.419200e-04 rev/day^2
Epoch rev: 3301

Satellite: qbee
Catalog number: 42708
Epoch time: 17348.824959
Element set: 999
Inclination: 51.636600 deg
RA of node: 211.514900 deg
Eccentricity: 0.000180
Arg of perigee: 178.914800 deg
Mean anomaly: 181.185100 deg
Mean motion: 15.625772 rev/day
Decay rate: 1.534700e-04 rev/day^2
Epoch rev: 3297

Satellite: ZA-AeroSat
Catalog number: 42713
Epoch time: 17348.846446
Element set: 999
Inclination: 51.636800 deg
RA of node: 212.417600 deg
Eccentricity: 0.000296
Arg of perigee: 176.471500 deg
Mean anomaly: 183.630000 deg
Mean motion: 15.613073 rev/day
Decay rate: 1.250100e-04 rev/day^2
Epoch rev: 3267

Satellite: LINK
Catalog number: 42714
Epoch time: 17348.822069
Element set: 999
Inclination: 51.634600 deg
RA of node: 210.734100 deg
Eccentricity: 0.000360
Arg of perigee: 176.118900 deg
Mean anomaly: 183.983400 deg
Mean motion: 15.647221 rev/day
Decay rate: 2.185500e-04 rev/day^2
Epoch rev: 3280

Satellite: UPSat
Catalog number: 42716
Epoch time: 17348.824061
Element set: 999
Inclination: 51.636600 deg
RA of node: 210.766700 deg
Eccentricity: 0.000240
Arg of perigee: 247.914400 deg
Mean anomaly: 112.159600 deg
Mean motion: 15.640524 rev/day
Decay rate: 1.851200e-04 rev/day^2
Epoch rev: 3282

Satellite: SpaceCube
Catalog number: 42717
Epoch time: 17348.842557
Element set: 999
Inclination: 51.636600 deg
RA of node: 211.638400 deg
Eccentricity: 0.000245
Arg of perigee: 254.752500 deg
Mean anomaly: 105.319800 deg
Mean motion: 15.624706 rev/day
Decay rate: 1.521500e-04 rev/day^2
Epoch rev: 3205

