Pratham
1 41783U 16059A   17348.18952812  .00000054  00000-0  19915-4 0  9991
2 41783  98.1451  47.4814 0032678 317.9035  41.9657 14.62886774 64910
AlSat 1N
1 41789U 16059G   17348.84867468  .00000068  00000-0  22195-4 0  9991
2 41789  98.1453  48.9863 0027379 309.5202  50.3564 14.64109836 65048
ScatSat
1 41790U 16059H   17348.69344285  .00000023  00000-0  17084-4 0  9995
2 41790  98.2875  34.5647 0017243 299.6600  60.2877 14.50853056 64434
TY-1
1 41844U 16066D   17348.77521906  .00001452  00000-0  65198-4 0  9995
2 41844  97.4060 353.2757 0015216 331.1529 114.8398 15.22696575 60817
CAS-2T
1 41845U 16066E   17348.84570427  .00000091  00000-0  23510-4 0  9996
2 41845  98.7681   8.7137 0367617  71.9704 292.1160 14.37838772 57459
Pegasus-1
1 41846U 16066F   17348.56816650  .00000363  00000-0  64731-4 0  9999
2 41846 098.7707 008.0886 0369690 074.7651 289.4090 14.37211963057388
STARS-C
1 41895U 98067KR  17348.55846122  .00065048  00000-0  32646-3 0  9990
2 41895 051.6325 194.6182 0004669 211.8614 148.2106 15.81097480056309
TO-89
1 41932U 98067KU  17348.45659394  .00020204  00000-0  19347-3 0  9992
2 41932 051.6376 205.3370 0004884 202.5210 157.5572 15.66650525051723
AOBA-V3LOX3
1 41935U 98067KX  17348.04765877  .00023517  00000-0  21288-3 0  9991
2 41935  51.6369 206.3400 0004382 199.6535 160.4293 15.67942464 51777
OSNSAT
1 41939U 98067KZ  17348.81990538  .00177209  23035-4  49901-3 0  9991
2 41939  51.6290 186.5181 0007183 220.6334 139.4138 15.93113917 51353
EO-88
1 42017U 17008BX  17348.54604801  .00001736  00000-0  75006-4 0  9990
2 42017 097.4744 049.5186 0005279 319.4718 040.6126 15.23834034045944
HAVELSAT
1 42700U 98067LH  17348.86676695  .00015186  00000-0  17060-3 0  9997
2 42700  51.6374 211.0538 0003874 262.3266  97.7289 15.62833634 33122
SOMP2
1 42701U 98067LJ  17348.83915101  .00014694  00000-0  16850-3 0  9992
2 42701  51.6371 211.6203 0003862 262.1368  97.9188 15.62332114 33108
Columbia
1 42702U 98067LK  17348.76643155  .00062906  00000-0  39896-3 0  9996
2 42702  51.6324 205.0778 0005151 215.4378 144.6280 15.75894557 33118
PHOENIX
1 42706U 98067LP  17348.82557543  .00012791  00000-0  14749-3 0  9999
2 42706  51.6371 211.5319 0001651 174.6142 185.4870 15.62331855 33024
X-CubeSat
1 42707U 98067LQ  17348.81230890  .00014192  00000-0  15981-3 0  9998
2 42707  51.6354 211.4271 0001865 176.8359 183.2648 15.62840765 33016
qbee
1 42708U 98067LR  17348.82495866  .00015347  00000-0  17408-3 0  9995
2 42708  51.6366 211.5149 0001801 178.9148 181.1851 15.62577249 32975
ZA-AeroSat
1 42713U 98067LU  17348.84644557  .00012501  00000-0  15005-3 0  9996
2 42713  51.6368 212.4176 0002964 176.4715 183.6300 15.61307272 32676
LINK
1 42714U 98067LV  17348.82206921  .00021855  00000-0  22548-3 0  9996
2 42714  51.6346 210.7341 0003595 176.1189 183.9834 15.64722095 32808
UPSat
1 42716U 98067LX  17348.82406113  .00018512  00000-0  19705-3 0  9990
2 42716  51.6366 210.7667 0002401 247.9144 112.1596 15.64052358 32825
SpaceCube
1 42717U 98067LY  17348.84255726  .00015215  00000-0  17335-3 0  9999
2 42717  51.6366 211.6384 0002446 254.7525 105.3198 15.62470639 32051
